{
  "type": "FeatureCollection",
  "features": [
    {
      "type": "Feature",
      "properties": {
        "norad_id": 66642,
        "name": "STARLINK-35926",
        "group": "last-30-days",
        "lat": -42.288035494814736,
        "lon": 81.88115194606829,
        "alt_km": 340.6085223801856,
        "timestamp": "2025-12-06T05:40:08.012896+00:00",
        "meta_object_name": "STARLINK-35926",
        "meta_object_id": "2025-271AB",
        "meta_epoch": "2025-12-05T04:20:31.083648",
        "meta_mean_motion": 15.779,
        "meta_eccentricity": 0.0002359,
        "meta_inclination": 53.1543,
        "meta_ra_of_asc_node": 224.1424,
        "meta_arg_of_pericenter": 227.7076,
        "meta_mean_anomaly": 132.3746,
        "meta_ephemeris_type": 0,
        "meta_classification_type": "U",
        "meta_norad_cat_id": 66642,
        "meta_element_set_no": 999,
        "meta_rev_at_epoch": 298,
        "meta_bstar": -0.0013018128,
        "meta_mean_motion_dot": -0.00219523,
        "meta_mean_motion_ddot": 0,
        "tle_line1": "1 66642U 25271AB  25339.18091532 -.00219523  00000+0 -13018-2 0  9990",
        "tle_line2": "2 66642  53.1543 224.1424 0002359 227.7076 132.3746 15.77900000  2980"
      },
      "geometry": {
        "type": "Point",
        "coordinates": [
          81.88115194606829,
          -42.288035494814736
        ]
      }
    },
    {
      "type": "Feature",
      "properties": {
        "norad_id": 66643,
        "name": "STARLINK-35918",
        "group": "last-30-days",
        "lat": -52.69295168253489,
        "lon": 118.58364693353859,
        "alt_km": 312.0257623448042,
        "timestamp": "2025-12-06T05:40:08.012908+00:00",
        "meta_object_name": "STARLINK-35918",
        "meta_object_id": "2025-271AC",
        "meta_epoch": "2025-12-04T20:45:01.404576",
        "meta_mean_motion": 15.82179053,
        "meta_eccentricity": 0.00144,
        "meta_inclination": 53.1558,
        "meta_ra_of_asc_node": 225.7279,
        "meta_arg_of_pericenter": 264.2391,
        "meta_mean_anomaly": 95.6991,
        "meta_ephemeris_type": 0,
        "meta_classification_type": "U",
        "meta_norad_cat_id": 66643,
        "meta_element_set_no": 999,
        "meta_rev_at_epoch": 297,
        "meta_bstar": 0.004581,
        "meta_mean_motion_dot": 0.01071055,
        "meta_mean_motion_ddot": 0,
        "tle_line1": "1 66643U 25271AC  25338.86459959  .01071055  00000+0  45810-2 0  9996",
        "tle_line2": "2 66643  53.1558 225.7279 0014400 264.2391  95.6991 15.82179053  2972"
      },
      "geometry": {
        "type": "Point",
        "coordinates": [
          118.58364693353859,
          -52.69295168253489
        ]
      }
    },
    {
      "type": "Feature",
      "properties": {
        "norad_id": 66644,
        "name": "STARLINK-35938",
        "group": "last-30-days",
        "lat": -52.20167188589543,
        "lon": 114.01852812193805,
        "alt_km": 316.36879631591,
        "timestamp": "2025-12-06T05:40:08.012919+00:00",
        "meta_object_name": "STARLINK-35938",
        "meta_object_id": "2025-271AD",
        "meta_epoch": "2025-12-04T22:15:39.970080",
        "meta_mean_motion": 15.81826433,
        "meta_eccentricity": 0.0012965,
        "meta_inclination": 53.1553,
        "meta_ra_of_asc_node": 225.4081,
        "meta_arg_of_pericenter": 257.2448,
        "meta_mean_anomaly": 102.7126,
        "meta_ephemeris_type": 0,
        "meta_classification_type": "U",
        "meta_norad_cat_id": 66644,
        "meta_element_set_no": 999,
        "meta_rev_at_epoch": 298,
        "meta_bstar": 0.0033361,
        "meta_mean_motion_dot": 0.007529,
        "meta_mean_motion_ddot": 0,
        "tle_line1": "1 66644U 25271AD  25338.92754595  .00752900  00000+0  33361-2 0  9990",
        "tle_line2": "2 66644  53.1553 225.4081 0012965 257.2448 102.7126 15.81826433  2986"
      },
      "geometry": {
        "type": "Point",
        "coordinates": [
          114.01852812193805,
          -52.20167188589543
        ]
      }
    },
    {
      "type": "Feature",
      "properties": {
        "norad_id": 66645,
        "name": "SHENZHOU-22",
        "group": "last-30-days",
        "lat": -28.612563583463153,
        "lon": 18.026443570828338,
        "alt_km": 387.6579966690506,
        "timestamp": "2025-12-06T05:40:08.012929+00:00",
        "meta_object_name": "SHENZHOU-22",
        "meta_object_id": "2025-272A",
        "meta_epoch": "2025-12-05T06:48:03.993120",
        "meta_mean_motion": 15.5871605,
        "meta_eccentricity": 0.00098342,
        "meta_inclination": 41.4682,
        "meta_ra_of_asc_node": 61.9587,
        "meta_arg_of_pericenter": 333.0075,
        "meta_mean_anomaly": 27.0251,
        "meta_ephemeris_type": 0,
        "meta_classification_type": "U",
        "meta_norad_cat_id": 66645,
        "meta_element_set_no": 999,
        "meta_rev_at_epoch": 26289,
        "meta_bstar": 0.00043162186,
        "meta_mean_motion_dot": 0.00034071,
        "meta_mean_motion_ddot": 0,
        "tle_line1": "1 66645U 25272A   25339.28337955  .00034071  00000+0  43162-3 0  9992",
        "tle_line2": "2 66645  41.4682  61.9587 0009834 333.0075  27.0251 15.58716050262897"
      },
      "geometry": {
        "type": "Point",
        "coordinates": [
          18.026443570828338,
          -28.612563583463153
        ]
      }
    },
    {
      "type": "Feature",
      "properties": {
        "norad_id": 66646,
        "name": "CZ-2F R/B",
        "group": "last-30-days",
        "lat": -25.064743067746885,
        "lon": -97.15600393216124,
        "alt_km": 167.84364798499064,
        "timestamp": "2025-12-06T05:40:08.012940+00:00",
        "meta_object_name": "CZ-2F R/B",
        "meta_object_id": "2025-272B",
        "meta_epoch": "2025-12-05T15:30:36.913248",
        "meta_mean_motion": 16.25262827,
        "meta_eccentricity": 0.0054499,
        "meta_inclination": 41.4567,
        "meta_ra_of_asc_node": 54.8075,
        "meta_arg_of_pericenter": 209.5071,
        "meta_mean_anomaly": 150.2711,
        "meta_ephemeris_type": 0,
        "meta_classification_type": "U",
        "meta_norad_cat_id": 66646,
        "meta_element_set_no": 999,
        "meta_rev_at_epoch": 169,
        "meta_bstar": 0.0005771,
        "meta_mean_motion_dot": 0.02719582,
        "meta_mean_motion_ddot": 7.7384e-06,
        "tle_line1": "1 66646U 25272B   25339.64626057  .02719582  77384-5  57710-3 0  9995",
        "tle_line2": "2 66646  41.4567  54.8075 0054499 209.5071 150.2711 16.25262827  1695"
      },
      "geometry": {
        "type": "Point",
        "coordinates": [
          -97.15600393216124,
          -25.064743067746885
        ]
      }
    },
    {
      "type": "Feature",
      "properties": {
        "norad_id": 66647,
        "name": "COSMOS 2597 (RODNIK-S 22)",
        "group": "last-30-days",
        "lat": -25.39650668820897,
        "lon": 114.07440094327474,
        "alt_km": 1504.7449862634812,
        "timestamp": "2025-12-06T05:40:08.012950+00:00",
        "meta_object_name": "COSMOS 2597 (RODNIK-S 22)",
        "meta_object_id": "2025-273A",
        "meta_epoch": "2025-12-05T07:17:51.167616",
        "meta_mean_motion": 12.41951079,
        "meta_eccentricity": 0.00080713,
        "meta_inclination": 82.4983,
        "meta_ra_of_asc_node": 291.0668,
        "meta_arg_of_pericenter": 306.7254,
        "meta_mean_anomaly": 53.3083,
        "meta_ephemeris_type": 0,
        "meta_classification_type": "U",
        "meta_norad_cat_id": 66647,
        "meta_element_set_no": 999,
        "meta_rev_at_epoch": 121,
        "meta_bstar": -4.5564816e-05,
        "meta_mean_motion_dot": 4e-08,
        "meta_mean_motion_ddot": 0,
        "tle_line1": "1 66647U 25273A   25339.30406444  .00000004  00000+0 -45565-4 0  9998",
        "tle_line2": "2 66647  82.4983 291.0668 0008071 306.7254  53.3083 12.41951079  1215"
      },
      "geometry": {
        "type": "Point",
        "coordinates": [
          114.07440094327474,
          -25.39650668820897
        ]
      }
    },
    {
      "type": "Feature",
      "properties": {
        "norad_id": 66648,
        "name": "COSMOS 2598 (RODNIK-S 23)",
        "group": "last-30-days",
        "lat": -36.74958279435278,
        "lon": 116.13711127578084,
        "alt_km": 1501.708575847727,
        "timestamp": "2025-12-06T05:40:08.012960+00:00",
        "meta_object_name": "COSMOS 2598 (RODNIK-S 23)",
        "meta_object_id": "2025-273B",
        "meta_epoch": "2025-12-04T06:06:47.884896",
        "meta_mean_motion": 12.42253119,
        "meta_eccentricity": 0.0008196,
        "meta_inclination": 82.5023,
        "meta_ra_of_asc_node": 291.7242,
        "meta_arg_of_pericenter": 297.6387,
        "meta_mean_anomaly": 62.386,
        "meta_ephemeris_type": 0,
        "meta_classification_type": "U",
        "meta_norad_cat_id": 66648,
        "meta_element_set_no": 999,
        "meta_rev_at_epoch": 108,
        "meta_bstar": -2.072e-05,
        "meta_mean_motion_dot": 7e-08,
        "meta_mean_motion_ddot": 0,
        "tle_line1": "1 66648U 25273B   25338.25472089  .00000007  00000+0 -20720-4 0  9999",
        "tle_line2": "2 66648  82.5023 291.7242 0008196 297.6387  62.3860 12.42253119  1089"
      },
      "geometry": {
        "type": "Point",
        "coordinates": [
          116.13711127578084,
          -36.74958279435278
        ]
      }
    }
  ]
}